[{"OBJECT_NAME":"ONEWEB-0418","OBJECT_ID":"2021-132AA","EPOCH":"2026-03-09T20:47:10.557888","MEAN_MOTION":13.18685618,"ECCENTRICITY":0.00017991,"INCLINATION":87.9254,"RA_OF_ASC_NODE":355.1791,"ARG_OF_PERICENTER":65.9403,"MEAN_ANOMALY":294.1917,"EPHEMERIS_TYPE":0,"CLASSIFICATION_TYPE":"U","NORAD_CAT_ID":50493,"ELEMENT_SET_NO":999,"REV_AT_EPOCH":20857,"BSTAR":0.0001954387,"MEAN_MOTION_DOT":9.0e-7,"MEAN_MOTION_DDOT":0},{"OBJECT_NAME":"DELTA 1 DEB","OBJECT_ID":"1968-002L","EPOCH":"2026-02-25T02:08:58.080768","MEAN_MOTION":12.91235474,"ECCENTRICITY":0.02929635,"INCLINATION":105.793,"RA_OF_ASC_NODE":139.4737,"ARG_OF_PERICENTER":49.3601,"MEAN_ANOMALY":68.101,"EPHEMERIS_TYPE":0,"CLASSIFICATION_TYPE":"U","NORAD_CAT_ID":29187,"ELEMENT_SET_NO":999,"REV_AT_EPOCH":58764,"BSTAR":0.00070165234,"MEAN_MOTION_DOT":1.5e-6,"MEAN_MOTION_DDOT":0}]
